[{"OBJECT_NAME":"STARLINK-4167","OBJECT_ID":"2022-076AZ","EPOCH":"2026-03-09T07:03:03.178656","MEAN_MOTION":15.08837836,"ECCENTRICITY":0.0001432,"INCLINATION":53.2172,"RA_OF_ASC_NODE":75.8984,"ARG_OF_PERICENTER":90.6476,"MEAN_ANOMALY":269.468,"EPHEMERIS_TYPE":0,"CLASSIFICATION_TYPE":"U","NORAD_CAT_ID":53033,"ELEMENT_SET_NO":999,"REV_AT_EPOCH":20306,"BSTAR":2.6145994e-5,"MEAN_MOTION_DOT":1.28e-6,"MEAN_MOTION_DDOT":0},{"OBJECT_NAME":"ELECTRON KICK STAGE R\/B","OBJECT_ID":"2024-172G","EPOCH":"2026-03-09T20:17:57.250464","MEAN_MOTION":14.97730495,"ECCENTRICITY":0.00502098,"INCLINATION":98.0041,"RA_OF_ASC_NODE":176.7734,"ARG_OF_PERICENTER":80.5411,"MEAN_ANOMALY":280.148,"EPHEMERIS_TYPE":0,"CLASSIFICATION_TYPE":"U","NORAD_CAT_ID":61226,"ELEMENT_SET_NO":999,"REV_AT_EPOCH":7982,"BSTAR":0.00056326684,"MEAN_MOTION_DOT":6.716e-5,"MEAN_MOTION_DDOT":0}]
